0 GAOFEN 6
1 43484U 18048A   18352.46275769  .00000075  00000-0  18287-4 0  9991
2 43484  98.0362  66.7444 0009888   3.6780 356.4503 14.76465903 29407
0 GAOFEN 6
1 43484U 18048A   18352.80160863  .00000067  00000-0  17110-4 0  9992
2 43484  98.0360  67.0814 0009869   2.5615 357.5635 14.76465902 29456
0 GAOFEN 6
1 43484U 18048A   18352.93714920  .00000042  00000-0  13417-4 0  9994
2 43484  98.0361  67.2166 0009861   2.1566 357.9652 14.76465598 29478
0 GAOFEN 6
1 43484U 18048A   18352.19167708  .00000074  00000-0  18073-4 0  9996
2 43484  98.0362  66.4749 0009924   4.6382 355.4925 14.76465808 29368
0 LUOJIA-1 01
1 43485U 18048B   18352.12760596  .00000161  00000-0  30569-4 0  9995
2 43485  98.0369  66.4090 0011119   1.3019 358.8225 14.76495522 29350
0 LUOJIA-1 01
1 43485U 18048B   18352.80529388  .00000159  00000-0  30270-4 0  9998
2 43485  98.0368  67.0832 0011067 359.1614   0.9569 14.76495816 29450
0 LUOJIA-1 01
1 43485U 18048B   18352.46644984  .00000167  00000-0  31486-4 0  9999
2 43485  98.0369  66.7463 0011105   0.2416 359.8798 14.76495746 29401
0 CZ-2D R/B
1 43486U 18048C   18352.18054356  .00000210  00000-0  36008-4 0  9991
2 43486  97.9132  63.9640 0016885 116.0145 244.2806 14.78142648 29408
0 CZ-2D DEB
1 43487U 18048D   18351.46050349 +.00000182 +00000-0 +34500-4 0  9993
2 43487 097.8955 061.8507 0034068 336.4555 023.5093 14.74915824029222
0 SES-12
1 43488U 18049A   18352.48383136 -.00000321  00000-0  00000+0 0  9990
2 43488   0.2864 167.1851 0204878 169.3866  22.5251  1.00511801  1988
0 FALCON 9 R/B
1 43489U 18049B   18351.92863135  .00000552  00000-0  15961-3 0  9992
2 43489  26.2092 125.2546 8142336 231.6997  24.0059  1.28180227  2531
0 FENGYUN 2H
1 43491U 18050A   18352.48859890 -.00000108  00000-0  00000+0 0  9994
2 43491   1.9216 284.1937 0003311 267.0297 150.7437  1.00271693  2061
0 FENGYUN 2H
1 43491U 18050A   18351.98506837 -.00000109 +00000-0 +00000-0 0  9990
2 43491 001.9227 284.2002 0003266 267.6156 328.3825 01.00271663002056
0 SOYUZ MS-09
1 43493U 18051A   18351.62823071 -.00000261 +00000-0 +33403-5 0  9993
2 43493 051.6392 184.5398 0005270 156.9792 276.9897 15.54073666147049
0 FENGYUN 2H AKM
1 43497U 18050C   18351.65482906 -.00000244 +00000-0 +00000-0 0  9990
2 43497 001.9763 283.8660 0086428 062.0637 299.2890 01.00080873001894
0 FENGYUN 2H AKM
1 43497U 18050C   18352.65405071 -.00000245  00000-0  00000+0 0  9999
2 43497   1.9740 283.8513 0086434  62.1110 299.2727  1.00080546  1908
0 ISS DEB
1 43498U 98067NS  18352.74223998  .00062949  00000-0  52975-3 0  9992
2 43498  51.6361 170.4062 0004019 187.2749 172.8191 15.69237859 29098
0 COSMOS 1900 DEB
1 43499U 87101D   18351.68720066 -.00000014 +00000-0 +20501-4 0  9997
2 43499 066.0839 099.1185 0038853 333.0561 026.8527 14.55840778195750
0 COSMOS 1900 DEB
1 43500U 87101E   18351.93007035 -.00000026 +00000-0 +17780-4 0  9990
2 43500 066.0876 095.4752 0039115 329.2176 144.6742 14.56190406269515
0 CZ-2D DEB
1 43504U 17084E   18351.21268810 +.00001351 +00000-0 +65846-4 0  9995
2 43504 097.5592 070.2943 0017151 326.2945 033.7198 15.19999640053985
0 CZ-2D DEB
1 43504U 17084E   18352.20015623  .00001367  00000-0  66586-4 0  9996
2 43504  97.5591  71.2836 0017074 322.6548  37.3498 15.20002554 54131
0 COSMOS 2527 (GLONASS)
1 43508U 18053A   18352.51936598  .00000125  00000-0  00000+0 0  9999
2 43508  64.8313 165.5362 0005491 216.2857 215.9079  2.13102628  3938
0 REMOVEDEBRIS
1 43510U 98067NT  18350.97381149 +.00002448 +00000-0 +41770-4 0  9993
2 43510 051.6377 186.3320 0004017 158.5591 201.5569 15.55772984027924
0 REMOVEDEBRIS
1 43510U 98067NT  18352.77235492  .00003556  00000-0  57486-4 0  9994
2 43510  51.6372 177.3436 0003939 165.1240 194.9868 15.55788127 28209
0 TITAN 3C TRANSTAGE DEB
1 43515U 69013T   18352.37958074 -.00000055  00000-0  00000+0 0  9999
2 43515   5.3748 303.4864 0308476 212.5339 145.6705  0.95440140  2094
0 TITAN 3C TRANSTAGE DEB
1 43515U 69013T   18351.33182059 -.00000081 +00000-0 +00000-0 0  9996
2 43515 005.3771 303.4940 0308656 212.5056 145.6925 00.95440355002082
0 TITAN 3C TRANSTAGE DEB
1 43516U 69013U   18351.20299426 -.00000129 +00000-0 +00000-0 0  9993
2 43516 005.4656 301.6208 0093459 101.4380 259.7343 00.96510515002090
0 TITAN 3C TRANSTAGE DEB
1 43516U 69013U   18352.23913143 -.00000108  00000-0  00000+0 0  9992
2 43516   5.4633 301.6117 0093556 101.4100 259.7683  0.96510108  2109
0 XJS A
1 43518U 18054A   18352.24897666 -.00000041  00000-0  00000+0 0  9991
2 43518  35.0249 279.2647 0004604  19.4968 107.1366 15.28584204 26656
0 XJS A
1 43518U 18054A   18352.82297416 -.00000041  00000-0  00000+0 0  9992
2 43518  35.0243 275.6268 0005277  24.8114  25.7064 15.28585576 26742
0 XJS A
1 43518U 18054A   18352.18912340 -.00000041  00000-0  00000+0 0  9991
2 43518  35.0250 279.6442 0004707  18.9713 137.7482 15.28584047 26643
0 XJS B
1 43519U 18054B   18352.18730032 -.00000040  00000-0  00000+0 0  9997
2 43519  35.0190 279.6077 0004648  46.1425 109.4744 15.28580758 26640
0 XJS B
1 43519U 18054B   18352.82180919 -.00000040  00000-0  00000+0 0  9991
2 43519  35.0186 275.5849 0004574  54.1986 358.8446 15.28582360 26747
0 XJS B
1 43519U 18054B   18352.25270023 -.00000040  00000-0  00000+0 0  9994
2 43519  35.0190 279.1931 0004629  47.9804 108.1228 15.28580989 26653
0 CZ-2C DEB
1 43520U 18054C   18352.21721272  .00004202  00000-0  14127-3 0  9991
2 43520  34.9993 277.2233 0006832  90.0688 270.0812 15.30219325 26660
0 CZ-2C DEB
1 43520U 18054C   18351.23858090 +.00003579 +00000-0 +12056-3 0  9996
2 43520 034.9995 283.4460 0006837 079.9078 280.2409 15.30210487026516
0 CZ-2C R/B
1 43521U 18054D   18351.83452720 +.00000544 +00000-0 +31994-4 0  9995
2 43521 035.1550 313.5788 0084042 328.7407 030.8327 15.10511142026282
0 CZ-2C R/B
1 43521U 18054D   18352.16501286  .00000544  00000-0  32010-4 0  9994
2 43521  35.1550 311.5437 0083998 331.6404  27.9754 15.10511552 26332
0 SL-12 DEB
1 43526U 10007Y   18352.40741310 -.00000033  00000-0  63332-4 0  9995
2 43526  64.3483 101.5891 5754413  39.7167 350.6536  4.22209429  8186
0 PAKTES 1A
1 43529U 18056A   18352.88771220 -.00000073  00000-0 -15910-5 0  9990
2 43529  98.0345  65.2850 0028321 111.4485 248.9790 14.87276342 24188
0 PRSS 1
1 43530U 18056B   18352.79807212  .00000064  00000-0  16470-4 0  9992
2 43530  98.0535  62.9305 0001543  92.1005 268.0375 14.76795357 24014
0 PRSS 1
1 43530U 18056B   18352.39154122  .00000061  00000-0  16070-4 0  9996
2 43530  98.0534  62.5251 0001521  92.9808 267.1577 14.76795262 23955
0 PRSS 1
1 43530U 18056B   18352.12052077  .00000051  00000-0  14629-4 0  9990
2 43530  98.0535  62.2546 0001517  93.3299 266.8090 14.76795098 23913
0 CZ-2C DEB
1 43531U 18056C   18352.19744816  .00073576  43473-5  23032-3 0  9992
2 43531  97.8058  82.7317 0087583 253.2302 105.9344 15.85335491 25491
0 CZ-2C DEB
1 43531U 18056C   18351.81871747 +.00074310 +43824-5 +23329-3 0  9990
2 43531 097.8056 082.2996 0087641 254.6938 104.4632 15.85273247025430
0 CZ-2C R/B
1 43532U 18056D   18351.85917529 +.00059612 +36450-5 +16090-3 0  9996
2 43532 098.0375 082.9223 0194947 302.6337 055.6240 15.69739504025159
0 CZ-2C R/B
1 43532U 18056D   18352.81532183  .00067492  39389-5  18129-3 0  9996
2 43532  98.0380  84.0213 0194490 299.0374  59.1522 15.69878729 25302
0 CZ-2C R/B
1 43532U 18056D   18352.24164422  .00060419  36753-5  16293-3 0  9994
2 43532  98.0378  83.3615 0194736 301.1832  57.0463 15.69791939 25212
0 CZ-2C DEB
1 43534U 18056F   18352.43253366  .00000306  00000-0  39672-4 0  9990
2 43534  98.0362  64.9615 0027573 108.9602 251.4606 14.87794917 24120
0 CZ-2C DEB
1 43534U 18056F   18351.82724099 +.00000294 +00000-0 +38289-4 0  9997
2 43534 098.0362 064.3484 0027563 110.8312 249.5859 14.87794459024036
0 PROGRESS MS-09
1 43537U 18058A   18351.62823071 -.00000261 +00000-0 +33403-5 0  9999
2 43537 051.6392 184.5398 0005270 156.9792 276.9897 15.54073666147048
0 BEIDOU IGSO-7
1 43539U 18057A   18352.91566014 -.00000024  00000-0  00000+0 0  9992
2 43539  55.0364 187.2964 0021679 177.8342 164.6672  1.00283427  1700
0 CZ-3A R/B
1 43540U 18057B   18351.52085844 +.00002552 +00000-0 +40119-3 0  9993
2 43540 055.0743 150.5740 7266184 197.2243 110.8001 02.31023806003779
0 SL-12 DEB
1 43541U 07052AH  18351.59829157 +.00001434 +00000-0 +63794-3 0  9999
2 43541 064.7667 173.1587 5820789 347.8067 002.6622 04.24935889007121
0 SL-12 DEB
1 43542U 10007AB  18352.35871575  .00007177  00000-0  20277-1 0  9997
2 43542  64.1050 102.7097 5745102  40.4762 350.4189  4.20575831  8125
0 SL-12 DEB
1 43544U 10007AD  18352.58405062  .04046929  62803-6  87046-2 0  9993
2 43544  65.3372  49.7884 3159989  24.0515 348.0205  9.28674184 10854
0 SL-12 DEB
1 43544U 10007AD  18352.47631054  .03884308  62023-6  82816-2 0  9997
2 43544  65.3374  49.9229 3164519  24.0619 348.0289  9.27805091 10844
0 SL-12 DEB
1 43544U 10007AD  18352.15252523  .03297923  59466-6  69865-2 0  9999
2 43544  65.3388  50.3257 3177006  24.1143 348.0400  9.25320729 10814
0 CUBERRT
1 43546U 98067NU  18352.86107638  .00004310  00000-0  61788-4 0  9992
2 43546  51.6372 175.6920 0006350 165.0846 195.0335 15.58522838 24584
0 CUBERRT
1 43546U 98067NU  18351.83514378 +.00004681 +00000-0 +66566-4 0  9991
2 43546 051.6373 180.8404 0006384 161.3574 198.7654 15.58514035024421
0 TEMPEST-D
1 43547U 98067NV  18351.85827027 +.00003013 +00000-0 +49428-4 0  9998
2 43547 051.6381 181.7404 0006476 154.3368 205.7946 15.55995601024091
0 TEMPEST-D
1 43547U 98067NV  18352.11516923  .00003212  00000-0  52224-4 0  9997
2 43547  51.6381 180.4561 0006458 155.2362 204.8941 15.55998047 24132
